INTELSAT 26         [PM]
1 24732C 97007A   20259.25000000  .00000108  00000-0  00000-0 0  2594
2 24732   9.1608  42.4738 0002918  14.4869  91.4130  1.00264990    14
INTELSAT 26             
1 24732C 97007A   20261.00000000  .00000108  00000-0  00000-0 0  2613
2 24732   9.1641  42.4126 0005498  91.8519 285.7588  1.00275994    10
INTELSAT 26             
1 24732C 97007A   20264.94774306  .00000108  00000-0  00000-0 0  2649
2 24732   9.1755  42.3827 0005962  97.6726 265.0406  1.00275977    14
GALAXY 25               
1 24812C 97026A   20261.00000000  .00000245  00000-0  00000-0 0  2615
2 24812   2.1316  89.7305 0003280 127.4233 172.1516  1.00269832    14
GALAXY 25               
1 24812C 97026A   20264.94774306  .00000245  00000-0  00000-0 0  2641
2 24812   2.1469  89.6425 0003423 127.0722 157.6575  1.00272594    15
GALAXY 25           [PM]
1 24812C 97026A   20268.13143519  .00000245  00000-0  00000-0 0  2686
2 24812   2.1572  89.6769 0003441 121.6976 232.2818  1.00269798    14
INTELSAT 5              
1 24916C 97046A   20261.00000000  .00000186  00000-0  00000-0 0  2616
2 24916   5.8891  65.0315 0001138 123.9528  30.4234  1.00271699    10
INTELSAT 5              
1 24916C 97046A   20264.94774306  .00000186  00000-0  00000-0 0  2642
2 24916   5.9026  64.9930 0001848  98.1406  41.3602  1.00268302    15
INTELSAT 5          [PM]
1 24916C 97046A   20265.51877315  .00000186  00000-0  00000-0 0  2651
2 24916   5.9041  64.9954 0004439 104.7160 240.9004  1.00271166    13
GALAXY 11               
1 26038C 99071A   20261.00000000 -.00000073  00000-0  00000-0 0  2619
2 26038   1.4350  95.4492 0000209 260.7370 267.1350  1.00269473    10
GALAXY 11               
1 26038C 99071A   20265.00000000 -.00000073  00000-0  00000-0 0  2657
2 26038   1.4485  95.2397 0000116  16.9545 155.0534  1.00270278    17
INTELSAT 9              
1 26451C 00043A   20261.00000000 -.00000191  00000-0  00000-0 0  2610
2 26451   5.8778  65.2187 0002342 149.9770  91.2058  1.00269949    18
INTELSAT 9          [PM]
1 26451C 00043A   20262.63700232 -.00000191  00000-0  00000-0 0  2625
2 26451   5.8827  65.1953 0001740  52.7923  59.3591  1.00270554    16
INTELSAT 9              
1 26451C 00043A   20264.94774306 -.00000191  00000-0  00000-0 0  2646
2 26451   5.8908  65.1747 0001796 142.6387  83.6606  1.00274729    16
INTELSAT 12             
1 26590C 00068A   20261.00000000  .00000104  00000-0  00000-0 0  2614
2 26590   3.1370  85.4503 0003422 106.5334 228.6692  1.00271735    18
INTELSAT 12             
1 26590C 00068A   20264.94774306  .00000104  00000-0  00000-0 0  2640
2 26590   3.1511  85.3429 0003610 107.0795 213.3108  1.00270344    15
INTELSAT 12         [PM]
1 26590C 00068A   20265.55555556  .00000104  00000-0  00000-0 0  2653
2 26590   3.1537  85.3361 0002860 108.6530  71.1478  1.00271241    15
INTELSAT 1R             
1 26608C 00072A   20261.00000000 -.00000047  00000-0  00000-0 0  2616
2 26608   2.9158  85.9535 0001314 354.4239  73.1457  1.00269613    19
INTELSAT 1R             
1 26608C 00072A   20265.00000000 -.00000047  00000-0  00000-0 0  2654
2 26608   2.9275  85.8398 0001669   4.3670  67.2452  1.00270565    15
INTELSAT 10         [PM]
1 26766C 01019A   20260.34932870  .00000216  00000-0  00000-0 0  2604
2 26766   4.0890  78.3580 0001629  87.3845   3.3010  1.00268103    13
INTELSAT 10             
1 26766C 01019A   20261.00000000  .00000216  00000-0  00000-0 0  2610
2 26766   4.0901  78.3459 0002558 113.4308 212.1415  1.00268763    19
INTELSAT 10             
1 26766C 01019A   20264.94774306  .00000216  00000-0  00000-0 0  2646
2 26766   4.1043  78.2711 0002667 116.9078 193.8036  1.00271051    18
INTELSAT 901            
1 26824C 01024A   20261.00000000 -.00000106  00000-0  00000-0 0  2610
2 26824   0.0077 205.9032 0000770 343.1479 139.8619  1.00270111    15
INTELSAT 901            
1 26824C 01024A   20264.94774306 -.00000205  00000-0  00000-0 0  2646
2 26824   0.0000 185.3122 0000930 350.7892 137.8825  1.00271097    14
INTELSAT 902            
1 26900C 01039A   20261.00000000 -.00000192  00000-0  00000-0 0  2616
2 26900   0.8294  95.9378 0003072  98.1489 112.2293  1.00271321    12
INTELSAT 902            
1 26900C 01039A   20264.94774306 -.00000192  00000-0  00000-0 0  2642
2 26900   0.8421  95.5647 0003290  97.2295  98.5850  1.00270721    14
INTELSAT 902        [PM]
1 26900C 01039A   20266.42138889 -.00000192  00000-0  00000-0 0  2669
2 26900   0.8528  82.2722 0003406  88.7313 292.3429  1.00272429    17
INTELSAT 904            
1 27380C 02007A   20261.00000000 -.00000123  00000-0  00000-0 0  2619
2 27380   1.6681  92.4957 0003089  90.4178 143.9948  1.00271227    10
INTELSAT 904        [PM]
1 27380C 02007A   20264.30304398 -.00000123  00000-0  00000-0 0  2645
2 27380   1.6834  81.3985 0003311  78.2604 279.5979  1.00272188    11
INTELSAT 904            
1 27380C 02007A   20264.94774306 -.00000123  00000-0  00000-0 0  2645
2 27380   1.6811  92.3000 0003144  80.4860 139.1967  1.00272260    18
INTELSAT 905            
1 27438C 02027A   20261.00000000 -.00000094  00000-0  00000-0 0  2612
2 27438   1.4890  93.4081 0002381  83.5500 154.9546  1.00270120    16
INTELSAT 905        [PM]
1 27438C 02027A   20264.81197917 -.00000094  00000-0  00000-0 0  2641
2 27438   1.5048  85.4926 0002555  68.7620 113.7080  1.00272839    17
INTELSAT 905            
1 27438C 02027A   20264.94774306 -.00000094  00000-0  00000-0 0  2648
2 27438   1.5018  93.1833 0002553  74.6444 149.1399  1.00276020    17
GALAXY 3C               
1 27445C 02030A   20261.00000000 -.00000057  00000-0  00000-0 0  2613
2 27445   0.0350 275.2628 0001291  42.6058 303.4906  1.00270505    18
GALAXY 3C               
1 27445C 02030A   20265.00000000 -.00000065  00000-0  00000-0 0  2650
2 27445   0.0323 294.8461 0000945  33.2912 297.1466  1.00269625    11
INTELSAT 906        [PM]
1 27513C 02041A   20260.71995370  .00000105  00000-0  00000-0 0  2603
2 27513   0.4937  98.7927 0003060  84.1233 136.5428  1.00270575    12
INTELSAT 906            
1 27513C 02041A   20261.00000000  .00000105  00000-0  00000-0 0  2614
2 27513   0.4941  98.7859 0003096  84.1826 237.5835  1.00270631    15
INTELSAT 906            
1 27513C 02041A   20264.94774306  .00000105  00000-0  00000-0 0  2640
2 27513   0.5067  98.0805 0003305  84.4665 223.0756  1.00272391    13
GALAXY 12               
1 27715C 03013B   20261.00000000  .00000149  00000-0  00000-0 0  2616
2 27715   1.7035  91.8505 0001610  88.4526  47.0997  1.00270254    17
GALAXY 12               
1 27715C 03013B   20264.94774306  .00000149  00000-0  00000-0 0  2642
2 27715   1.7169  91.6514 0001898  84.2999  36.5237  1.00272135    19
GALAXY 12           [PM]
1 27715C 03013B   20266.56833333  .00000149  00000-0  00000-0 0  2660
2 27715   1.7227  91.6646 0002087  86.0897 259.7335  1.00270540    14
GALAXY 23               
1 27854C 03034A   20261.00000000  .00000103  00000-0  00000-0 0  2613
2 27854   0.0332 240.8097 0002861 300.6171  53.9827  1.00270700    13
GALAXY 23               
1 27854C 03034A   20264.94774306  .00000108  00000-0  00000-0 0  2644
2 27854   0.0363 258.7985 0003121 281.0833  40.5915  1.00270803    12
GALAXY 23           [PM]
1 27854C 03034A   20265.52677083  .00000104  00000-0  00000-0 0  2650
2 27854   0.0338 257.4207 0003147 283.9694 248.1016  1.00271333    18
GALAXY 13           [PM]
1 27954C 03044A   20254.68283565  .00000138  00000-0  00000-0 0  2540
2 27954   0.0234 257.1734 0000774 110.8087 101.0273  1.00273479    18
GALAXY 13               
1 27954C 03044A   20261.00000000  .00000139  00000-0  00000-0 0  2614
2 27954   0.0119 203.9658 0002503 355.1153  30.3105  1.00269204    13
GALAXY 13               
1 27954C 03044A   20264.94774306  .00000130  00000-0  00000-0 0  2641
2 27954   0.0057 207.1799 0001366 356.8015  10.4866  1.00271299    17
INTELSAT 10-02          
1 28358C 04022A   20261.00000000  .00000086  00000-0  00000-0 0  2611
2 28358   0.0175 216.3107 0002888 323.5149 175.5817  1.00270309    11
INTELSAT 10-02          
1 28358C 04022A   20265.00000000  .00000073  00000-0  00000-0 0  2655
2 28358   0.0039 189.3733 0003031 349.3309 180.6357  1.00271556    10
INTELSAT 10-02      [PM]
1 28358C 04022A   20267.27430556  .00000079  00000-0  00000-0 0  2677
2 28358   0.0089 209.7968 0003154 324.4921 286.0423  1.00271211    15
GALAXY 28               
1 28702C 05022A   20261.00000000 -.00000100  00000-0  00000-0 0  2613
2 28702   0.0021 157.9252 0001233 276.3305 193.1519  1.00270485    17
GALAXY 28           [PM]
1 28702C 05022A   20261.09655093 -.00000039  00000-0  00000-0 0  2611
2 28702   0.0000 166.7927 0001455 258.9715 236.5006  1.00272163    16
GALAXY 28               
1 28702C 05022A   20265.00000000 -.00003676  00000-0  00000-0 0  2652
2 28702   0.0000 183.4415 0001732 270.2732 177.6392  1.00270668    19
GALAXY 14           [PM]
1 28790C 05030A   20258.21219907  .00000126  00000-0  00000-0 0  2589
2 28790   0.0468 313.3391 0002281 228.3532 123.3632  1.00270069    13
GALAXY 14               
1 28790C 05030A   20261.00000000  .00000130  00000-0  00000-0 0  2611
2 28790   0.0492 320.5795 0002218 215.3262  55.4965  1.00270399    14
GALAXY 14               
1 28790C 05030A   20264.94774306  .00000088  00000-0  00000-0 0  2649
2 28790   0.0293 308.7669 0002503 224.5019  43.2043  1.00272161    11
GALAXY 15               
1 28884C 05041A   20261.00000000  .00000169  00000-0  00000-0 0  2619
2 28884   0.0318 249.9296 0001537 278.0518  55.4286  1.00269836    18
GALAXY 15               
1 28884C 05041A   20264.94774306  .00000136  00000-0  00000-0 0  2649
2 28884   0.0128 237.2949 0001850 287.3455  43.8349  1.00271961    16
GALAXY 15           [PM]
1 28884C 05041A   20267.56863426  .00000169  00000-0  00000-0 0  2671
2 28884   0.0026 195.5623 0001899 327.6923 271.3314  1.00270383    16
